{
  "type": "FeatureCollection",
  "features": [
    {
      "type": "Feature",
      "properties": {
        "norad_id": 29268,
        "name": "ARIRANG-2 (KOMPSAT-2)",
        "group": "resource",
        "lat": 28.027471215447783,
        "lon": 11.229450064782796,
        "alt_km": 681.3538547542921,
        "timestamp": "2025-12-25T03:55:55.962760+00:00",
        "meta_object_name": "ARIRANG-2 (KOMPSAT-2)",
        "meta_object_id": "2006-031A",
        "meta_epoch": "2025-12-24T21:09:21.009024",
        "meta_mean_motion": 14.64505149,
        "meta_eccentricity": 0.0013135,
        "meta_inclination": 97.8256,
        "meta_ra_of_asc_node": 186.7626,
        "meta_arg_of_pericenter": 267.3648,
        "meta_mean_anomaly": 196.6459,
        "meta_ephemeris_type": 0,
        "meta_classification_type": "U",
        "meta_norad_cat_id": 29268,
        "meta_element_set_no": 999,
        "meta_rev_at_epoch": 3596,
        "meta_bstar": 0.00014737,
        "meta_mean_motion_dot": 7.37e-06,
        "meta_mean_motion_ddot": 0,
        "tle_line1": "1 29268U 06031A   25358.88149316  .00000737  00000+0  14737-3 0  9991",
        "tle_line2": "2 29268  97.8256 186.7626 0013135 267.3648 196.6459 14.64505149 35963"
      },
      "geometry": {
        "type": "Point",
        "coordinates": [
          11.229450064782796,
          28.027471215447783
        ]
      }
    },
    {
      "type": "Feature",
      "properties": {
        "norad_id": 29709,
        "name": "LAPAN-TUBSAT",
        "group": "resource",
        "lat": -46.989010530122776,
        "lon": -1.613661484439852,
        "alt_km": 617.3694297693146,
        "timestamp": "2025-12-25T03:55:55.962771+00:00",
        "meta_object_name": "LAPAN-TUBSAT",
        "meta_object_id": "2007-001A",
        "meta_epoch": "2025-12-24T21:40:49.105632",
        "meta_mean_motion": 14.85686705,
        "meta_eccentricity": 0.0013221,
        "meta_inclination": 98.1264,
        "meta_ra_of_asc_node": 349.3098,
        "meta_arg_of_pericenter": 37.9639,
        "meta_mean_anomaly": 322.2505,
        "meta_ephemeris_type": 0,
        "meta_classification_type": "U",
        "meta_norad_cat_id": 29709,
        "meta_element_set_no": 999,
        "meta_rev_at_epoch": 2527,
        "meta_bstar": 1.9689e-05,
        "meta_mean_motion_dot": 1.13e-06,
        "meta_mean_motion_ddot": 0,
        "tle_line1": "1 29709U 07001A   25358.90334613  .00000113  00000+0  19689-4 0  9998",
        "tle_line2": "2 29709  98.1264 349.3098 0013221  37.9639 322.2505 14.85686705 25276"
      },
      "geometry": {
        "type": "Point",
        "coordinates": [
          -1.613661484439852,
          -46.989010530122776
        ]
      }
    },
    {
      "type": "Feature",
      "properties": {
        "norad_id": 31113,
        "name": "HAIYANG-1B",
        "group": "resource",
        "lat": -80.69696285174793,
        "lon": 46.40202519209866,
        "alt_km": 795.5192073712196,
        "timestamp": "2025-12-25T03:55:55.962782+00:00",
        "meta_object_name": "HAIYANG-1B",
        "meta_object_id": "2007-010A",
        "meta_epoch": "2025-12-24T19:56:29.461056",
        "meta_mean_motion": 14.30968874,
        "meta_eccentricity": 0.0013616,
        "meta_inclination": 98.3329,
        "meta_ra_of_asc_node": 342.6101,
        "meta_arg_of_pericenter": 3.3672,
        "meta_mean_anomaly": 356.7601,
        "meta_ephemeris_type": 0,
        "meta_classification_type": "U",
        "meta_norad_cat_id": 31113,
        "meta_element_set_no": 999,
        "meta_rev_at_epoch": 97569,
        "meta_bstar": 5.82e-05,
        "meta_mean_motion_dot": 1.12e-06,
        "meta_mean_motion_ddot": 0,
        "tle_line1": "1 31113U 07010A   25358.83089654  .00000112  00000+0  58200-4 0  9995",
        "tle_line2": "2 31113  98.3329 342.6101 0013616   3.3672 356.7601 14.30968874975694"
      },
      "geometry": {
        "type": "Point",
        "coordinates": [
          46.40202519209866,
          -80.69696285174793
        ]
      }
    },
    {
      "type": "Feature",
      "properties": {
        "norad_id": 31598,
        "name": "COSMO-SKYMED 1",
        "group": "resource",
        "lat": 0.8035078043290952,
        "lon": -175.46622252328174,
        "alt_km": 582.4417213780225,
        "timestamp": "2025-12-25T03:55:55.962793+00:00",
        "meta_object_name": "COSMO-SKYMED 1",
        "meta_object_id": "2007-023A",
        "meta_epoch": "2025-12-24T19:54:05.270688",
        "meta_mean_motion": 14.95853242,
        "meta_eccentricity": 0.0001284,
        "meta_inclination": 97.884,
        "meta_ra_of_asc_node": 184.3084,
        "meta_arg_of_pericenter": 78.1165,
        "meta_mean_anomaly": 282.02,
        "meta_ephemeris_type": 0,
        "meta_classification_type": "U",
        "meta_norad_cat_id": 31598,
        "meta_element_set_no": 999,
        "meta_rev_at_epoch": 371,
        "meta_bstar": 0.00028493,
        "meta_mean_motion_dot": 3.125e-05,
        "meta_mean_motion_ddot": 0,
        "tle_line1": "1 31598U 07023A   25358.82922767  .00003125  00000+0  28493-3 0  9993",
        "tle_line2": "2 31598  97.8840 184.3084 0001284  78.1165 282.0200 14.95853242  3713"
      },
      "geometry": {
        "type": "Point",
        "coordinates": [
          -175.46622252328174,
          0.8035078043290952
        ]
      }
    },
    {
      "type": "Feature",
      "properties": {
        "norad_id": 31698,
        "name": "TERRASAR-X",
        "group": "resource",
        "lat": -21.218365426588846,
        "lon": 7.272481044260593,
        "alt_km": 513.9789019964419,
        "timestamp": "2025-12-25T03:55:55.962811+00:00",
        "meta_object_name": "TERRASAR-X",
        "meta_object_id": "2007-026A",
        "meta_epoch": "2025-12-24T13:47:55.330080",
        "meta_mean_motion": 15.19151427,
        "meta_eccentricity": 0.0001815,
        "meta_inclination": 97.4444,
        "meta_ra_of_asc_node": 3.7823,
        "meta_arg_of_pericenter": 79.9991,
        "meta_mean_anomaly": 280.1449,
        "meta_ephemeris_type": 0,
        "meta_classification_type": "U",
        "meta_norad_cat_id": 31698,
        "meta_element_set_no": 999,
        "meta_rev_at_epoch": 2671,
        "meta_bstar": 4.817e-05,
        "meta_mean_motion_dot": 9.45e-06,
        "meta_mean_motion_ddot": 0,
        "tle_line1": "1 31698U 07026A   25358.57494595  .00000945  00000+0  48170-4 0  9994",
        "tle_line2": "2 31698  97.4444   3.7823 0001815  79.9991 280.1449 15.19151427 26713"
      },
      "geometry": {
        "type": "Point",
        "coordinates": [
          7.272481044260593,
          -21.218365426588846
        ]
      }
    },
    {
      "type": "Feature",
      "properties": {
        "norad_id": 32060,
        "name": "WORLDVIEW-1 (WV-1)",
        "group": "resource",
        "lat": -33.369079200989866,
        "lon": -68.43567670444176,
        "alt_km": 501.8812330380706,
        "timestamp": "2025-12-25T03:55:55.962834+00:00",
        "meta_object_name": "WORLDVIEW-1 (WV-1)",
        "meta_object_id": "2007-041A",
        "meta_epoch": "2025-12-24T19:07:06.327264",
        "meta_mean_motion": 15.23950436,
        "meta_eccentricity": 0.0003195,
        "meta_inclination": 97.3828,
        "meta_ra_of_asc_node": 116.1016,
        "meta_arg_of_pericenter": 356.2904,
        "meta_mean_anomaly": 3.8309,
        "meta_ephemeris_type": 0,
        "meta_classification_type": "U",
        "meta_norad_cat_id": 32060,
        "meta_element_set_no": 999,
        "meta_rev_at_epoch": 1631,
        "meta_bstar": 0.00035414,
        "meta_mean_motion_dot": 8.498e-05,
        "meta_mean_motion_ddot": 0,
        "tle_line1": "1 32060U 07041A   25358.79660101  .00008498  00000+0  35414-3 0  9994",
        "tle_line2": "2 32060  97.3828 116.1016 0003195 356.2904   3.8309 15.23950436 16315"
      },
      "geometry": {
        "type": "Point",
        "coordinates": [
          -68.43567670444176,
          -33.369079200989866
        ]
      }
    },
    {
      "type": "Feature",
      "properties": {
        "norad_id": 32289,
        "name": "YAOGAN-3",
        "group": "resource",
        "lat": -53.674979619737584,
        "lon": 36.47044690276471,
        "alt_km": 605.9092447230378,
        "timestamp": "2025-12-25T03:55:55.962848+00:00",
        "meta_object_name": "YAOGAN-3",
        "meta_object_id": "2007-055A",
        "meta_epoch": "2025-12-24T20:07:01.062336",
        "meta_mean_motion": 14.89913716,
        "meta_eccentricity": 0.0001301,
        "meta_inclination": 97.8353,
        "meta_ra_of_asc_node": 25.3531,
        "meta_arg_of_pericenter": 85.9042,
        "meta_mean_anomaly": 274.2325,
        "meta_ephemeris_type": 0,
        "meta_classification_type": "U",
        "meta_norad_cat_id": 32289,
        "meta_element_set_no": 999,
        "meta_rev_at_epoch": 97989,
        "meta_bstar": 0.00020274,
        "meta_mean_motion_dot": 1.895e-05,
        "meta_mean_motion_ddot": 0,
        "tle_line1": "1 32289U 07055A   25358.83820674  .00001895  00000+0  20274-3 0  9992",
        "tle_line2": "2 32289  97.8353  25.3531 0001301  85.9042 274.2325 14.89913716979899"
      },
      "geometry": {
        "type": "Point",
        "coordinates": [
          36.47044690276471,
          -53.674979619737584
        ]
      }
    }
  ]
}